GLOBALSTAR M045 [-]     
1 25676U 99019A   23317.74685417 -.00000044  00000+0  43919-3 0  9999
2 25676  51.9947 162.4407 0001662 104.3112  18.8635 12.27019397122012
GLOBALSTAR M019 [-]     
1 25677U 99019B   23318.07361694 -.00000196  00000+0 -11068-2 0  9993
2 25677  51.9880 250.9983 0000246 199.1437 174.0183 12.13846358114766
GLOBALSTAR M044 [-]     
1 25678U 99019C   23317.78307583 -.00000070  00000+0  18426-3 0  9994
2 25678  51.9941 130.4307 0006340   8.0676   5.2885 11.90227064102099
GLOBALSTAR M042 [-]     
1 25679U 99019D   23317.55835073 -.00000066  00000+0  24553-3 0  9993
2 25679  52.0014 252.8592 0002655 168.7378   2.8572 12.22051000114210
GLOBALSTAR M025 [-]     
1 25770U 99031A   23317.55927863 -.00000077  00000+0 -27966-3 0  9992
2 25770  51.9823  66.6399 0000918 213.1226 159.8695 11.22547031416397
GLOBALSTAR M049 [-]     
1 25771U 99031B   23317.63078363 -.00000144  00000+0 -27404-2 0  9995
2 25771  51.9879  72.0100 0003688 118.2054 241.9115 11.12102280 52726
GLOBALSTAR M047 [-]     
1 25772U 99031C   23317.90572675 -.00000075  00000+0 -15922-3 0  9997
2 25772  51.9800 123.8923 0015871 348.8344  11.2108 11.31917321405283
GLOBALSTAR M052 [-]     
1 25773U 99031D   23318.08799817 -.00000066  00000+0 -19933-4 0  9994
2 25773  51.9842 187.8232 0001628 316.8911 214.3406 11.15047162 71514
